HYVRID                  
1 71478C 25052AJ  25074.37337442 -.00068088  00000+0 -67308-2 0    02
2 71478  97.7474 328.5460 0000991  94.5052 203.5835 14.92040316    16
